"ID","OWNERID","ISDELETED","NAME","RECORDTYPEID","CREATEDDATE","CREATEDBYID","LASTMODIFIEDDATE","LASTMODIFIEDBYID","SYSTEMMODSTAMP","MAYEDIT","ISLOCKED","LASTVIEWEDDATE","LASTREFERENCEDDATE","ADDRESS_LINE_2_VOD__C","ADDRESS_VOD__C","CITY_VOD__C","EXTERNAL_ID_VOD__C","POSTAL_CODE_VOD__C","STATE_PROVINCE_VOD__C","STATUS_VOD__C","FORMATTED_ADDRESS_VOD__C","PHONE_HCPTS__C","COUNTRY_HCPTS__C","LAST_MODIFIED_BY_HCPTS__C","CREATED_BY_HCTPS__C","STATUS"
"a4o3E00000003GLQAY","005d0000002bflUAAQ","false","Hospital Universitario HM Madrid","","2015-07-13T02:47:02.000Z","005d0000002bflUAAQ","2015-07-13T03:02:44.000Z","005d0000002bflUAAQ","2015-07-13T03:02:44.000Z","true","false","","","","Pl. del Conde del Valle de Súchil, 16","Madrid","","28015","","Eligible_vod","Pl. del Conde del Valle de Súchil, 16, Madrid, 28015","+34 915 12 90 00","Spain","<a href=""/005d0000002bflU"" target=""_blank"">Daniel Pinkert</a>, 7/12/2015","<a href=""/005d0000002bflU"" target=""_blank"">Daniel Pinkert</a>, 7/12/2015","Item Created"
"a4o3E00000003GMQAY","005Z0000002RJEcIAO","false","Testing Venue","","2015-09-24T11:39:23.000Z","005Z0000002RJEcIAO","2015-09-24T11:39:23.000Z","005Z0000002RJEcIAO","2015-09-24T11:39:23.000Z","true","false","","","Address2","Address1","City1","","Postal Code1","State1","Eligible_vod","Address1, Address2, City1, State1, Postal Code1","123456789","Spain","<a href=""/005Z0000002RJEc"" target=""_blank"">Manchala Sainath</a>, 9/24/2015","<a href=""/005Z0000002RJEc"" target=""_blank"">Manchala Sainath</a>, 9/24/2015","Item Created"
"a4o3E00000003GNQAY","005d0000002bflUAAQ","false","London Marriott Convention Center","","2015-07-13T03:05:45.000Z","005d0000002bflUAAQ","2015-07-13T03:05:45.000Z","005d0000002bflUAAQ","2015-07-13T03:05:45.000Z","true","false","","","","London County Hall, Westminster Bridge Road","London","","","","Eligible_vod","London County Hall, Westminster Bridge Road, London","+44 20 7928 5200","United Kingdom","<a href=""/005d0000002bflU"" target=""_blank"">Daniel Pinkert</a>, 7/12/2015","<a href=""/005d0000002bflU"" target=""_blank"">Daniel Pinkert</a>, 7/12/2015","Item Created"
"a4o3E00000003GOQAY","005d0000002bflUAAQ","false","Madrid Convention Center","","2015-07-13T02:57:13.000Z","005d0000002bflUAAQ","2015-07-13T03:06:08.000Z","005d0000002bflUAAQ","2015-07-13T03:06:08.000Z","true","false","","","","Gran Vía, 40","Madrid","","28013","","Eligible_vod","Gran Vía, 40, Madrid, 28013","+34 914 00 44 50","Spain","<a href=""/005d0000002bflU"" target=""_blank"">Daniel Pinkert</a>, 7/12/2015","<a href=""/005d0000002bflU"" target=""_blank"">Daniel Pinkert</a>, 7/12/2015","Item Created"
"a4o3E00000003GPQAY","005d0000002bflUAAQ","false","The Royal London Hospital","","2015-07-13T03:16:39.000Z","005d0000002bflUAAQ","2015-07-13T03:16:39.000Z","005d0000002bflUAAQ","2015-07-13T03:16:39.000Z","true","false","","","","Whitechapel Road","London","","","","Eligible_vod","Whitechapel Road, London","+44 20 7377 7000","United Kingdom","<a href=""/005d0000002bflU"" target=""_blank"">Daniel Pinkert</a>, 7/12/2015","<a href=""/005d0000002bflU"" target=""_blank"">Daniel Pinkert</a>, 7/12/2015","Item Created"
"a4o3E00000003GQQAY","005d0000002bflUAAQ","false","Munich Hospital","","2015-07-13T03:30:17.000Z","005d0000002bflUAAQ","2015-07-13T03:30:23.000Z","005d0000002bflUAAQ","2015-07-13T03:30:23.000Z","true","false","","","","Ismaninger Str. 22","Munich","","81675","","Eligible_vod","Ismaninger Str. 22, Munich, 81675","+49 89 41400","Germany","<a href=""/005d0000002bflU"" target=""_blank"">Daniel Pinkert</a>, 7/12/2015","<a href=""/005d0000002bflU"" target=""_blank"">Daniel Pinkert</a>, 7/12/2015","Item Created"
"a4o3E00000003GRQAY","005d0000003OPuuAAG","false","Restaurant Achilles","","2016-05-17T21:00:28.000Z","005d0000003OPuuAAG","2016-05-17T21:00:28.000Z","005d0000003OPuuAAG","2016-07-17T02:25:57.000Z","true","false","","","","Marktstrasse 2","Lippstadt","","59555","","Eligible_vod","Marktstrasse 2, Lippstadt, 59555","","DE","<a href=""/005d0000003OPuu"" target=""_blank"">Sarah Young</a>, 5/17/2016","<a href=""/005d0000003OPuu"" target=""_blank"">Sarah Young</a>, 5/17/2016","Item Created"
"a4o3E00000003GSQAY","005d0000002bflUAAQ","false","Eurostars Grand Central Hotel","","2016-05-17T22:34:01.000Z","005d0000002bflUAAQ","2016-05-26T13:08:46.000Z","005Z0000002r6gSIAQ","2016-07-17T02:25:57.000Z","true","false","","","","Arnulfstrasse 35","München","","80636","","Eligible_vod","Arnulfstrasse 35, München, 80636","+49 89 5165740","DE","<a href=""/005Z0000002r6gS"" target=""_blank"">Murugesh Naidu</a>, 5/26/2016","<a href=""/005d0000002bflU"" target=""_blank"">Daniel Pinkert</a>, 5/17/2016","Item Created"
"a4o3E00000003GTQAY","005d0000002bflUAAQ","false","Steigenberger 3 Mohren","","2016-05-17T22:34:01.000Z","005d0000002bflUAAQ","2016-05-26T13:08:46.000Z","005Z0000002r6gSIAQ","2016-07-17T02:25:57.000Z","true","false","","","","Maximilianstr.40","Augsburg","","86150","","Eligible_vod","Maximilianstr.40, Augsburg, 86150","","DE","<a href=""/005Z0000002r6gS"" target=""_blank"">Murugesh Naidu</a>, 5/26/2016","<a href=""/005d0000002bflU"" target=""_blank"">Daniel Pinkert</a>, 5/17/2016","Item Created"
"a4o3E00000003GUQAY","005d0000002bflUAAQ","false","Sheraton Grand Hotel Esplanade","","2016-05-17T22:34:01.000Z","005d0000002bflUAAQ","2016-05-26T13:08:46.000Z","005Z0000002r6gSIAQ","2016-07-17T02:25:57.000Z","true","false","","","","Lützowufer 15","Berlin","","10785","","Eligible_vod","Lützowufer 15, Berlin, 10785","","DE","<a href=""/005Z0000002r6gS"" target=""_blank"">Murugesh Naidu</a>, 5/26/2016","<a href=""/005d0000002bflU"" target=""_blank"">Daniel Pinkert</a>, 5/17/2016","Item Created"
"a4o3E00000003GVQAY","005d0000002bflUAAQ","false","Steigenberger Hotel Berlin","","2016-05-17T22:34:01.000Z","005d0000002bflUAAQ","2016-05-26T13:08:46.000Z","005Z0000002r6gSIAQ","2016-07-17T02:25:57.000Z","true","false","","","","Los-Angeles-Platz 1","Berlin","","10789","","Eligible_vod","Los-Angeles-Platz 1, Berlin, 10789","","DE","<a href=""/005Z0000002r6gS"" target=""_blank"">Murugesh Naidu</a>, 5/26/2016","<a href=""/005d0000002bflU"" target=""_blank"">Daniel Pinkert</a>, 5/17/2016","Item Created"
"a4o3E00000003GWQAY","005d0000002bflUAAQ","false","Steigenberger am Kanzleramt","","2016-05-17T22:34:01.000Z","005d0000002bflUAAQ","2016-05-26T13:08:46.000Z","005Z0000002r6gSIAQ","2016-07-17T02:25:57.000Z","true","false","","","","Ella-Trebe-Straße 5","Berlin","","10557","","Eligible_vod","Ella-Trebe-Straße 5, Berlin, 10557","","DE","<a href=""/005Z0000002r6gS"" target=""_blank"">Murugesh Naidu</a>, 5/26/2016","<a href=""/005d0000002bflU"" target=""_blank"">Daniel Pinkert</a>, 5/17/2016","Item Created"
"a4o3E00000003GXQAY","005d0000002bflUAAQ","false","Steigenberger Parkhotel","","2016-05-17T22:34:01.000Z","005d0000002bflUAAQ","2016-05-26T13:08:46.000Z","005Z0000002r6gSIAQ","2016-07-17T02:25:57.000Z","true","false","","","","Nimes-Str. 2","Braunschweig","","38100","","Eligible_vod","Nimes-Str. 2, Braunschweig, 38100","","DE","<a href=""/005Z0000002r6gS"" target=""_blank"">Murugesh Naidu</a>, 5/26/2016","<a href=""/005d0000002bflU"" target=""_blank"">Daniel Pinkert</a>, 5/17/2016","Item Created"
"a4o3E00000003GYQAY","005d0000002bflUAAQ","false","Steigenberger Hotel Bremen","","2016-05-17T22:34:01.000Z","005d0000002bflUAAQ","2016-05-26T13:08:46.000Z","005Z0000002r6gSIAQ","2016-07-17T02:25:57.000Z","true","false","","","","Am Weser-Terminal 6","Bremen","","28217","","Eligible_vod","Am Weser-Terminal 6, Bremen, 28217","","DE","<a href=""/005Z0000002r6gS"" target=""_blank"">Murugesh Naidu</a>, 5/26/2016","<a href=""/005d0000002bflU"" target=""_blank"">Daniel Pinkert</a>, 5/17/2016","Item Created"
"a4o3E00000003GZQAY","005d0000002bflUAAQ","false","Swissotel Bremen","","2016-05-17T22:34:01.000Z","005d0000002bflUAAQ","2016-05-26T13:08:46.000Z","005Z0000002r6gSIAQ","2016-07-17T02:25:57.000Z","true","false","","","","Hillmannplatz 20","Bremen","","28195","","Eligible_vod","Hillmannplatz 20, Bremen, 28195","","DE","<a href=""/005Z0000002r6gS"" target=""_blank"">Murugesh Naidu</a>, 5/26/2016","<a href=""/005d0000002bflU"" target=""_blank"">Daniel Pinkert</a>, 5/17/2016","Item Created"
"a4o3E00000003GaQAI","005d0000002bflUAAQ","false","Lindner Congress Hotel","","2016-05-17T22:34:01.000Z","005d0000002bflUAAQ","2016-05-26T13:08:46.000Z","005Z0000002r6gSIAQ","2016-07-17T02:25:57.000Z","true","false","","","","Berliner Platz","Cottbus","","3046","","Eligible_vod","Berliner Platz, Cottbus, 3046","","DE","<a href=""/005Z0000002r6gS"" target=""_blank"">Murugesh Naidu</a>, 5/26/2016","<a href=""/005d0000002bflU"" target=""_blank"">Daniel Pinkert</a>, 5/17/2016","Item Created"
"a4o3E00000003GbQAI","005d0000002bflUAAQ","false","Steigenberger Hotel Deidesheim","","2016-05-17T22:34:01.000Z","005d0000002bflUAAQ","2016-05-26T13:08:46.000Z","005Z0000002r6gSIAQ","2016-07-17T02:25:57.000Z","true","false","","","","Am Paradiesgarten 1","Deidesheim","","67146","","Eligible_vod","Am Paradiesgarten 1, Deidesheim, 67146","","DE","<a href=""/005Z0000002r6gS"" target=""_blank"">Murugesh Naidu</a>, 5/26/2016","<a href=""/005d0000002bflU"" target=""_blank"">Daniel Pinkert</a>, 5/17/2016","Item Created"
"a4o3E00000003GcQAI","005d0000002bflUAAQ","false","Steigenberger Hotel Dortmund","","2016-05-17T22:34:01.000Z","005d0000002bflUAAQ","2016-05-26T13:08:46.000Z","005Z0000002r6gSIAQ","2016-07-17T02:25:57.000Z","true","false","","","","Berswordtstraße 2","Dortmund","","44139","","Eligible_vod","Berswordtstraße 2, Dortmund, 44139","","DE","<a href=""/005Z0000002r6gS"" target=""_blank"">Murugesh Naidu</a>, 5/26/2016","<a href=""/005d0000002bflU"" target=""_blank"">Daniel Pinkert</a>, 5/17/2016","Item Created"
"a4o3E00000003GdQAI","005d0000002bflUAAQ","false","Steigenberger de Sax","","2016-05-17T22:34:01.000Z","005d0000002bflUAAQ","2016-05-26T13:08:46.000Z","005Z0000002r6gSIAQ","2016-07-17T02:25:57.000Z","true","false","","","","Neumarkt 9","Dresden","","1067","","Eligible_vod","Neumarkt 9, Dresden, 1067","","DE","<a href=""/005Z0000002r6gS"" target=""_blank"">Murugesh Naidu</a>, 5/26/2016","<a href=""/005d0000002bflU"" target=""_blank"">Daniel Pinkert</a>, 5/17/2016","Item Created"
"a4o3E00000003GeQAI","005d0000002bflUAAQ","false","Swissotel Düsseldorf Neuss","","2016-05-17T22:34:01.000Z","005d0000002bflUAAQ","2016-05-26T13:08:46.000Z","005Z0000002r6gSIAQ","2016-07-17T02:25:57.000Z","true","false","","","","Rheinallee 1","Düsseldorf","","41460","","Eligible_vod","Rheinallee 1, Düsseldorf, 41460","","DE","<a href=""/005Z0000002r6gS"" target=""_blank"">Murugesh Naidu</a>, 5/26/2016","<a href=""/005d0000002bflU"" target=""_blank"">Daniel Pinkert</a>, 5/17/2016","Item Created"
"a4o3E00000003GfQAI","005d0000002bflUAAQ","false","Lindner Congress Hotel","","2016-05-17T22:34:01.000Z","005d0000002bflUAAQ","2016-05-26T13:08:46.000Z","005Z0000002r6gSIAQ","2016-07-17T02:25:57.000Z","true","false","","","","Lütticher Str. 130","Düsseldorf","","40547","","Eligible_vod","Lütticher Str. 130, Düsseldorf, 40547","","DE","<a href=""/005Z0000002r6gS"" target=""_blank"">Murugesh Naidu</a>, 5/26/2016","<a href=""/005d0000002bflU"" target=""_blank"">Daniel Pinkert</a>, 5/17/2016","Item Created"
"a4o3E00000003GgQAI","005d0000002bflUAAQ","false","Lindner Airport Düsseldorf","","2016-05-17T22:34:01.000Z","005d0000002bflUAAQ","2016-05-26T13:08:46.000Z","005Z0000002r6gSIAQ","2016-07-17T02:25:57.000Z","true","false","","","","Unterrather Str. 108","Düsseldorf","","40468","","Eligible_vod","Unterrather Str. 108, Düsseldorf, 40468","","DE","<a href=""/005Z0000002r6gS"" target=""_blank"">Murugesh Naidu</a>, 5/26/2016","<a href=""/005d0000002bflU"" target=""_blank"">Daniel Pinkert</a>, 5/17/2016","Item Created"
"a4o3E00000003GhQAI","005d0000002bflUAAQ","false","Steigenberger Thüringer Hof","","2016-05-17T22:34:01.000Z","005d0000002bflUAAQ","2016-05-26T13:08:46.000Z","005Z0000002r6gSIAQ","2016-07-17T02:25:57.000Z","true","false","","","","Karlspl. 11","Eisenach","","99817","","Eligible_vod","Karlspl. 11, Eisenach, 99817","","DE","<a href=""/005Z0000002r6gS"" target=""_blank"">Murugesh Naidu</a>, 5/26/2016","<a href=""/005d0000002bflU"" target=""_blank"">Daniel Pinkert</a>, 5/17/2016","Item Created"
"a4o3E00000003GiQAI","005d0000002bflUAAQ","false","InterContinental Hotel Frankfurt","","2016-05-17T22:34:01.000Z","005d0000002bflUAAQ","2016-05-26T13:08:46.000Z","005Z0000002r6gSIAQ","2016-07-17T02:25:57.000Z","true","false","","","","Wilhelm-Leuschner-Straße 43","Frankfurt am Main","","60329","","Eligible_vod","Wilhelm-Leuschner-Straße 43, Frankfurt am Main, 60329","","DE","<a href=""/005Z0000002r6gS"" target=""_blank"">Murugesh Naidu</a>, 5/26/2016","<a href=""/005d0000002bflU"" target=""_blank"">Daniel Pinkert</a>, 5/17/2016","Item Created"
"a4o3E00000003GjQAI","005d0000002bflUAAQ","false","Lindner Congress Hotel","","2016-05-17T22:34:01.000Z","005d0000002bflUAAQ","2016-05-26T13:08:46.000Z","005Z0000002r6gSIAQ","2016-07-17T02:25:57.000Z","true","false","","","","Bolongarostraße 100","Frankfurt am Main","","65929","","Eligible_vod","Bolongarostraße 100, Frankfurt am Main, 65929","","DE","<a href=""/005Z0000002r6gS"" target=""_blank"">Murugesh Naidu</a>, 5/26/2016","<a href=""/005d0000002bflU"" target=""_blank"">Daniel Pinkert</a>, 5/17/2016","Item Created"
"a4o3E00000003GkQAI","005d0000002bflUAAQ","false","Lindner Main Plaza","","2016-05-17T22:34:01.000Z","005d0000002bflUAAQ","2016-05-26T13:08:46.000Z","005Z0000002r6gSIAQ","2016-07-17T02:25:57.000Z","true","false","","","","Walther-von-Cronberg-Platz 1","Frankfurt am Main","","60594","","Eligible_vod","Walther-von-Cronberg-Platz 1, Frankfurt am Main, 60594","","DE","<a href=""/005Z0000002r6gS"" target=""_blank"">Murugesh Naidu</a>, 5/26/2016","<a href=""/005d0000002bflU"" target=""_blank"">Daniel Pinkert</a>, 5/17/2016","Item Created"
"a4o3E00000003GlQAI","005d0000002bflUAAQ","false","Steigenberger Airport Frankfurt","","2016-05-17T22:34:01.000Z","005d0000002bflUAAQ","2016-05-26T13:08:46.000Z","005Z0000002r6gSIAQ","2016-07-17T02:25:57.000Z","true","false","","","","Unterschweinstiege 16","Frankfurt am Main","","60549","","Eligible_vod","Unterschweinstiege 16, Frankfurt am Main, 60549","","DE","<a href=""/005Z0000002r6gS"" target=""_blank"">Murugesh Naidu</a>, 5/26/2016","<a href=""/005d0000002bflU"" target=""_blank"">Daniel Pinkert</a>, 5/17/2016","Item Created"
"a4o3E00000003GmQAI","005d0000002bflUAAQ","false","Steigenberger Hotel Frankfurt-Langen","","2016-05-17T22:34:01.000Z","005d0000002bflUAAQ","2016-05-26T13:08:46.000Z","005Z0000002r6gSIAQ","2016-07-17T02:25:57.000Z","true","false","","","","Robert-Bosch-Straße 26","Frankfurt-Langen","","63225","","Eligible_vod","Robert-Bosch-Straße 26, Frankfurt-Langen, 63225","","DE","<a href=""/005Z0000002r6gS"" target=""_blank"">Murugesh Naidu</a>, 5/26/2016","<a href=""/005d0000002bflU"" target=""_blank"">Daniel Pinkert</a>, 5/17/2016","Item Created"
"a4o3E00000003GnQAI","005d0000002bflUAAQ","false","Lindner Am Michel","","2016-05-17T22:34:01.000Z","005d0000002bflUAAQ","2016-05-26T13:08:46.000Z","005Z0000002r6gSIAQ","2016-07-17T02:25:57.000Z","true","false","","","","Neanderstraße 20","Hamburg","","20459","","Eligible_vod","Neanderstraße 20, Hamburg, 20459","","DE","<a href=""/005Z0000002r6gS"" target=""_blank"">Murugesh Naidu</a>, 5/26/2016","<a href=""/005d0000002bflU"" target=""_blank"">Daniel Pinkert</a>, 5/17/2016","Item Created"
"a4o3E00000003GoQAI","005d0000002bflUAAQ","false","Lindner Park-Hotel Hagenbeck","","2016-05-17T22:34:01.000Z","005d0000002bflUAAQ","2016-05-26T13:08:46.000Z","005Z0000002r6gSIAQ","2016-07-17T02:25:57.000Z","true","false","","","","Hagenbeckstraße 150","Hamburg","","22527","","Eligible_vod","Hagenbeckstraße 150, Hamburg, 22527","","DE","<a href=""/005Z0000002r6gS"" target=""_blank"">Murugesh Naidu</a>, 5/26/2016","<a href=""/005d0000002bflU"" target=""_blank"">Daniel Pinkert</a>, 5/17/2016","Item Created"
"a4o3E00000003GpQAI","005d0000002bflUAAQ","false","MAXX Hotel Jena","","2016-05-17T22:34:01.000Z","005d0000002bflUAAQ","2016-05-26T13:08:46.000Z","005Z0000002r6gSIAQ","2016-07-17T02:25:57.000Z","true","false","","","","Stauffenbergstraße 59","Jena","","7747","","Eligible_vod","Stauffenbergstraße 59, Jena, 7747","","DE","<a href=""/005Z0000002r6gS"" target=""_blank"">Murugesh Naidu</a>, 5/26/2016","<a href=""/005d0000002bflU"" target=""_blank"">Daniel Pinkert</a>, 5/17/2016","Item Created"
"a4o3E00000003GqQAI","005d0000002bflUAAQ","false","Steigenberger Esplanade","","2016-05-17T22:34:01.000Z","005d0000002bflUAAQ","2016-05-26T13:08:46.000Z","005Z0000002r6gSIAQ","2016-07-17T02:25:57.000Z","true","false","","","","Carl-Zeiss-Platz 4","Jena","","7743","","Eligible_vod","Carl-Zeiss-Platz 4, Jena, 7743","","DE","<a href=""/005Z0000002r6gS"" target=""_blank"">Murugesh Naidu</a>, 5/26/2016","<a href=""/005d0000002bflU"" target=""_blank"">Daniel Pinkert</a>, 5/17/2016","Item Created"
"a4o3E00000003GrQAI","005d0000002bflUAAQ","false","Steigenberger Conti-Hansa","","2016-05-17T22:34:01.000Z","005d0000002bflUAAQ","2016-05-26T13:08:46.000Z","005Z0000002r6gSIAQ","2016-07-17T02:25:57.000Z","true","false","","","","Schloßgarten 7","Kiel","","24103","","Eligible_vod","Schloßgarten 7, Kiel, 24103","","DE","<a href=""/005Z0000002r6gS"" target=""_blank"">Murugesh Naidu</a>, 5/26/2016","<a href=""/005d0000002bflU"" target=""_blank"">Daniel Pinkert</a>, 5/17/2016","Item Created"
"a4o3E00000003GsQAI","005d0000002bflUAAQ","false","Lindner City Plaza Köln","","2016-05-17T22:34:01.000Z","005d0000002bflUAAQ","2016-05-26T13:08:46.000Z","005Z0000002r6gSIAQ","2016-07-17T02:25:57.000Z","true","false","","","","Magnusstraße 20","Köln","","50672","","Eligible_vod","Magnusstraße 20, Köln, 50672","","DE","<a href=""/005Z0000002r6gS"" target=""_blank"">Murugesh Naidu</a>, 5/26/2016","<a href=""/005d0000002bflU"" target=""_blank"">Daniel Pinkert</a>, 5/17/2016","Item Created"
"a4o3E00000003GtQAI","005d0000002bflUAAQ","false","Lindner","","2016-05-17T22:34:01.000Z","005d0000002bflUAAQ","2016-05-26T13:08:46.000Z","005Z0000002r6gSIAQ","2016-07-17T02:25:57.000Z","true","false","","","","Hans-Driesch-Straße 27","Leipzig","","4179","","Eligible_vod","Hans-Driesch-Straße 27, Leipzig, 4179","","DE","<a href=""/005Z0000002r6gS"" target=""_blank"">Murugesh Naidu</a>, 5/26/2016","<a href=""/005d0000002bflU"" target=""_blank"">Daniel Pinkert</a>, 5/17/2016","Item Created"
"a4o3E00000003GuQAI","005d0000002bflUAAQ","false","Leonardo Royal Hotel Mannheim","","2016-05-17T22:34:01.000Z","005d0000002bflUAAQ","2016-05-26T13:08:46.000Z","005Z0000002r6gSIAQ","2016-07-17T02:25:57.000Z","true","false","","","","Augustaanlage 4-8","Mannheim","","68165","","Eligible_vod","Augustaanlage 4-8, Mannheim, 68165","","DE","<a href=""/005Z0000002r6gS"" target=""_blank"">Murugesh Naidu</a>, 5/26/2016","<a href=""/005d0000002bflU"" target=""_blank"">Daniel Pinkert</a>, 5/17/2016","Item Created"
"a4o3E00000003GvQAI","005d0000002bflUAAQ","false","Le Meridien München","","2016-05-17T22:34:01.000Z","005d0000002bflUAAQ","2016-05-26T13:08:46.000Z","005Z0000002r6gSIAQ","2016-07-17T02:25:57.000Z","true","false","","","","Bayerstraße 41","München","","80335","","Eligible_vod","Bayerstraße 41, München, 80335","","DE","<a href=""/005Z0000002r6gS"" target=""_blank"">Murugesh Naidu</a>, 5/26/2016","<a href=""/005d0000002bflU"" target=""_blank"">Daniel Pinkert</a>, 5/17/2016","Item Created"
"a4o3E00000003GwQAI","005d0000002bflUAAQ","false","Hilton Airport München","","2016-05-17T22:34:01.000Z","005d0000002bflUAAQ","2016-05-26T13:08:46.000Z","005Z0000002r6gSIAQ","2016-07-17T02:25:57.000Z","true","false","","","","Terminalstraße Mitte 20","München","","85356","","Eligible_vod","Terminalstraße Mitte 20, München, 85356","","DE","<a href=""/005Z0000002r6gS"" target=""_blank"">Murugesh Naidu</a>, 5/26/2016","<a href=""/005d0000002bflU"" target=""_blank"">Daniel Pinkert</a>, 5/17/2016","Item Created"
"a4o3E00000003GxQAI","005d0000002bflUAAQ","false","The Westin Grand Hotel","","2016-05-17T22:34:01.000Z","005d0000002bflUAAQ","2016-05-26T13:08:46.000Z","005Z0000002r6gSIAQ","2016-07-17T02:25:57.000Z","true","false","","","","Arabellastraße 6","München","","81925","","Eligible_vod","Arabellastraße 6, München, 81925","","DE","<a href=""/005Z0000002r6gS"" target=""_blank"">Murugesh Naidu</a>, 5/26/2016","<a href=""/005d0000002bflU"" target=""_blank"">Daniel Pinkert</a>, 5/17/2016","Item Created"
"a4o3E00000003GyQAI","005d0000002bflUAAQ","false","Steigenberger Hotel Sanssouci","","2016-05-17T22:34:01.000Z","005d0000002bflUAAQ","2016-05-26T13:08:46.000Z","005Z0000002r6gSIAQ","2016-07-17T02:25:57.000Z","true","false","","","","Allee nach Sanssouci 1","Potsdam","","14471","","Eligible_vod","Allee nach Sanssouci 1, Potsdam, 14471","","DE","<a href=""/005Z0000002r6gS"" target=""_blank"">Murugesh Naidu</a>, 5/26/2016","<a href=""/005d0000002bflU"" target=""_blank"">Daniel Pinkert</a>, 5/17/2016","Item Created"
"a4o3E00000003GzQAI","005d0000002bflUAAQ","false","Steigenberger Hotel Sonne","","2016-05-17T22:34:01.000Z","005d0000002bflUAAQ","2016-05-26T13:08:46.000Z","005Z0000002r6gSIAQ","2016-07-17T02:25:57.000Z","true","false","","","","Alter Markt 2","Rostock","","18055","","Eligible_vod","Alter Markt 2, Rostock, 18055","","DE","<a href=""/005Z0000002r6gS"" target=""_blank"">Murugesh Naidu</a>, 5/26/2016","<a href=""/005d0000002bflU"" target=""_blank"">Daniel Pinkert</a>, 5/17/2016","Item Created"
"a4o3E00000003H0QAI","005d0000002bflUAAQ","false","Le Meridien Stuttgart","","2016-05-17T22:34:01.000Z","005d0000002bflUAAQ","2016-05-26T13:08:46.000Z","005Z0000002r6gSIAQ","2016-07-17T02:25:57.000Z","true","false","","","","Willy-Brandt-Straße 30","Stuttgart","","70173","","Eligible_vod","Willy-Brandt-Straße 30, Stuttgart, 70173","","DE","<a href=""/005Z0000002r6gS"" target=""_blank"">Murugesh Naidu</a>, 5/26/2016","<a href=""/005d0000002bflU"" target=""_blank"">Daniel Pinkert</a>, 5/17/2016","Item Created"
"a4o3E00000003H1QAI","005d0000002bflUAAQ","false","Dorint Hotel Pallas","","2016-05-17T22:34:01.000Z","005d0000002bflUAAQ","2016-05-26T13:08:46.000Z","005Z0000002r6gSIAQ","2016-07-17T02:25:57.000Z","true","false","","","","Auguste-Viktoria-Straße 15","Wiesbaden","","65185","","Eligible_vod","Auguste-Viktoria-Straße 15, Wiesbaden, 65185","","DE","<a href=""/005Z0000002r6gS"" target=""_blank"">Murugesh Naidu</a>, 5/26/2016","<a href=""/005d0000002bflU"" target=""_blank"">Daniel Pinkert</a>, 5/17/2016","Item Created"
"a4o3E00000003H2QAI","005d0000002bfc3AAA","false","Airport Conference Center Fraport","","2016-05-17T22:34:01.000Z","005d0000002bflUAAQ","2016-05-26T13:08:46.000Z","005Z0000002r6gSIAQ","2017-02-11T11:31:28.000Z","true","false","","","","Hugo-Eckener-Ring","Frankfurt am Main","","60547","","Eligible_vod","Hugo-Eckener-Ring, Frankfurt am Main, 60547","","DE","<a href=""/005Z0000002r6gS"" target=""_blank"">Murugesh Naidu</a>, 5/26/2016","<a href=""/005d0000002bflU"" target=""_blank"">Daniel Pinkert</a>, 5/17/2016","Item Created"
"a4o3E00000003H3QAI","005d0000002bflUAAQ","false","CCB Congress Centrum Bremen","","2016-05-17T22:34:01.000Z","005d0000002bflUAAQ","2016-05-26T13:08:46.000Z","005Z0000002r6gSIAQ","2016-07-17T02:25:57.000Z","true","false","","","Messe Bremen","Findorffstrasse 101","Bremen","","28215","","Eligible_vod","Findorffstrasse 101, Messe Bremen, Bremen, 28215","","DE","<a href=""/005Z0000002r6gS"" target=""_blank"">Murugesh Naidu</a>, 5/26/2016","<a href=""/005d0000002bflU"" target=""_blank"">Daniel Pinkert</a>, 5/17/2016","Item Created"
"a4o3E00000003H4QAI","005d0000002bflUAAQ","false","RAMADA Überseehotel Bremen","","2016-05-17T22:34:01.000Z","005d0000002bflUAAQ","2016-05-26T13:08:46.000Z","005Z0000002r6gSIAQ","2016-07-17T02:25:57.000Z","true","false","","","","Wachtstraße 27-29","Bremen","","28195","","Eligible_vod","Wachtstraße 27-29, Bremen, 28195","+49 421 36010","DE","<a href=""/005Z0000002r6gS"" target=""_blank"">Murugesh Naidu</a>, 5/26/2016","<a href=""/005d0000002bflU"" target=""_blank"">Daniel Pinkert</a>, 5/17/2016","Item Created"
"a4o3E00000003H5QAI","005d0000002bflUAAQ","false","BEST WESTERN Hotel zur Post","","2016-05-17T22:34:01.000Z","005d0000002bflUAAQ","2016-05-26T13:08:46.000Z","005Z0000002r6gSIAQ","2016-07-17T02:25:57.000Z","true","false","","","","Bahnhofsplatz 11","Bremen","","28195","","Eligible_vod","Bahnhofsplatz 11, Bremen, 28195","+49 421 30590","DE","<a href=""/005Z0000002r6gS"" target=""_blank"">Murugesh Naidu</a>, 5/26/2016","<a href=""/005d0000002bflU"" target=""_blank"">Daniel Pinkert</a>, 5/17/2016","Item Created"
"a4o3E00000003H6QAI","005d0000002bflUAAQ","false","Canova","","2016-05-17T22:34:01.000Z","005d0000002bflUAAQ","2016-05-26T13:08:46.000Z","005Z0000002r6gSIAQ","2016-07-17T02:25:57.000Z","true","false","","","","Am Wall 207","Bremen","","28195","","Eligible_vod","Am Wall 207, Bremen, 28195","+49 421 2440708","DE","<a href=""/005Z0000002r6gS"" target=""_blank"">Murugesh Naidu</a>, 5/26/2016","<a href=""/005d0000002bflU"" target=""_blank"">Daniel Pinkert</a>, 5/17/2016","Item Created"
"a4o3E00000003H7QAI","005d0000002bflUAAQ","false","Bristol-Myers Squibb GmbH & Co. KGaA","","2016-05-17T22:34:01.000Z","005d0000002bflUAAQ","2016-05-26T13:08:46.000Z","005Z0000002r6gSIAQ","2016-07-17T02:25:57.000Z","true","false","","","Atrium","Arnulfstraße 29","München","","80636","","Eligible_vod","Arnulfstraße 29, Atrium, München, 80636","+49 89 121420","DE","<a href=""/005Z0000002r6gS"" target=""_blank"">Murugesh Naidu</a>, 5/26/2016","<a href=""/005d0000002bflU"" target=""_blank"">Daniel Pinkert</a>, 5/17/2016","Item Created"
"a4o3E00000003H8QAI","005d0000003OPuuAAG","false","German Marriott","","2015-05-14T14:22:59.000Z","005d0000003OPuuAAG","2015-07-13T03:02:03.000Z","005d0000002bflUAAQ","2015-07-13T03:02:03.000Z","true","false","","","","Berliner Straße 93","Munich","","80805","","Eligible_vod","Berliner Straße 93, Munich, 80805","","Germany","<a href=""/005d0000002bflU"" target=""_blank"">Daniel Pinkert</a>, 7/12/2015","<a href=""/005d0000003OPuu"" target=""_blank"">Sarah Young</a>, 5/14/2015","Item Created"
"a4o3E00000003H9QAI","005d0000003OPuuAAG","false","Venue Test","","2016-10-24T22:09:57.000Z","005d0000003OPuuAAG","2016-10-24T22:09:57.000Z","005d0000003OPuuAAG","2016-10-24T22:09:57.000Z","true","false","","","","Venue Address","","","","","","Venue Address","","","<a href=""/005d0000003OPuu"" target=""_blank"">Sarah Young</a>, 10/24/2016","<a href=""/005d0000003OPuu"" target=""_blank"">Sarah Young</a>, 10/24/2016","Item Created"
"a4o3E00000003HAQAY","005d0000002bfc3AAA","false","Allianz Arena","","2015-03-18T02:04:05.000Z","005d0000002bfc3AAA","2015-11-10T22:41:40.000Z","005Z0000002r6gSIAQ","2016-07-17T02:25:57.000Z","true","false","2015-11-10T22:41:40.000Z","2015-11-10T22:41:40.000Z","","123 German St","Berlin","","","GE","Eligible_vod","123 German St, Berlin, GE","","","<a href=""/005Z0000002r6gS"" target=""_blank"">Murugesh Naidu</a>, 11/10/2015","<a href=""/005d0000002bfc3"" target=""_blank"">Veeva Professional Services</a>, 3/17/2015","Item Created"
"a4o3E00000003HBQAY","005d0000003OPuuAAG","false","Paris Hotel","","2015-04-27T19:01:39.000Z","005d0000003OPuuAAG","2015-07-13T03:00:51.000Z","005d0000002bflUAAQ","2015-07-13T03:00:51.000Z","true","false","2015-06-30T19:53:43.000Z","2015-06-30T19:53:43.000Z","","70 Avenue des Champs-Elysees","Paris","","","France","Eligible_vod","70 Avenue des Champs-Elysees, Paris, France","","France","<a href=""/005d0000002bflU"" target=""_blank"">Daniel Pinkert</a>, 7/12/2015","<a href=""/005d0000003OPuu"" target=""_blank"">Sarah Young</a>, 4/27/2015","Item Created"
"a4o3E00000003HCQAY","005d0000002bflUAAQ","false","Marseille Hospital","","2015-07-13T03:31:56.000Z","005d0000002bflUAAQ","2015-07-13T03:31:56.000Z","005d0000002bflUAAQ","2015-07-13T03:31:56.000Z","true","false","","","","317 Boulevard du Redon","Marseille","","13009","","Eligible_vod","317 Boulevard du Redon, Marseille, 13009","+33 826 66 69 68","France","<a href=""/005d0000002bflU"" target=""_blank"">Daniel Pinkert</a>, 7/12/2015","<a href=""/005d0000002bflU"" target=""_blank"">Daniel Pinkert</a>, 7/12/2015","Item Created"
"a4o3E00000003HDQAY","005d0000003OPuuAAG","false","AC Hotel Arganda","","2015-07-11T17:03:20.000Z","005d0000003OPuuAAG","2015-07-13T03:01:18.000Z","005d0000002bflUAAQ","2015-07-13T03:01:18.000Z","true","false","2017-02-11T12:03:15.000Z","2017-02-11T12:03:15.000Z","28500 Arganda del Rey","Av. de Madrid, 47","Madrid","","28045","","Eligible_vod","Av. de Madrid, 47, 28500 Arganda del Rey, Madrid, 28045","+34 918 75 75 00","Spain","<a href=""/005d0000002bflU"" target=""_blank"">Daniel Pinkert</a>, 7/12/2015","<a href=""/005d0000003OPuu"" target=""_blank"">Sarah Young</a>, 7/11/2015","Item Created"
"a4o3E00000003HEQAY","005d0000002bfc3AAA","false","RESTAURANT LE CHAT NOIR","","2015-04-15T20:55:41.000Z","005d0000002bfc3AAA","2015-07-13T03:01:50.000Z","005d0000002bflUAAQ","2015-07-13T03:01:50.000Z","true","false","","","","30 rue Pasteur","METZ","","57000","BERNARD","Eligible_vod","30 rue Pasteur, METZ, BERNARD, 57000","","France","<a href=""/005d0000002bflU"" target=""_blank"">Daniel Pinkert</a>, 7/12/2015","<a href=""/005d0000002bfc3"" target=""_blank"">Veeva Professional Services</a>, 4/15/2015","Item Created"
"a4o3E00000003HFQAY","005d0000002bflUAAQ","false","Barcelona Center","","2015-07-13T03:13:24.000Z","005d0000002bflUAAQ","2015-07-13T03:13:24.000Z","005d0000002bflUAAQ","2017-02-11T11:31:28.000Z","true","false","","","","Carrer de Balmes, 103-105","Barcelona","","08008","","Eligible_vod","Carrer de Balmes, 103-105, Barcelona, 08008","+34 932 73 00 00","Spain","<a href=""/005d0000002bflU"" target=""_blank"">Daniel Pinkert</a>, 7/12/2015","<a href=""/005d0000002bflU"" target=""_blank"">Daniel Pinkert</a>, 7/12/2015","Item Created"
"a4o3E00000003HGQAY","005d0000002bflUAAQ","false","Hyatt","","2015-07-20T19:22:30.000Z","005d0000002bflUAAQ","2015-07-20T19:22:36.000Z","005d0000002bflUAAQ","2015-07-20T19:22:36.000Z","true","false","","","","","","","","","","","","","<a href=""/005d0000002bflU"" target=""_blank"">Daniel Pinkert</a>, 7/20/2015","<a href=""/005d0000002bflU"" target=""_blank"">Daniel Pinkert</a>, 7/20/2015","Item Created"
"a4o3E00000003HHQAY","005d0000002bflUAAQ","false","Barcelona Hospital","","2015-07-13T19:11:25.000Z","005d0000002bflUAAQ","2015-07-13T19:11:25.000Z","005d0000002bflUAAQ","2015-07-13T19:11:25.000Z","true","false","","","","Carrer de Balmes, 103-105","Barcelona","","08008","","Eligible_vod","Carrer de Balmes, 103-105, Barcelona, 08008","+34 932 73 00 00","Spain","<a href=""/005d0000002bflU"" target=""_blank"">Daniel Pinkert</a>, 7/13/2015","<a href=""/005d0000002bflU"" target=""_blank"">Daniel Pinkert</a>, 7/13/2015","Item Created"
